[{"OBJECT_NAME":"STARLINK-3678","OBJECT_ID":"2022-029AK","EPOCH":"2026-03-09T10:27:44.269920","MEAN_MOTION":15.08831331,"ECCENTRICITY":0.00013369,"INCLINATION":53.2174,"RA_OF_ASC_NODE":70.2621,"ARG_OF_PERICENTER":93.2339,"MEAN_ANOMALY":266.8806,"EPHEMERIS_TYPE":0,"CLASSIFICATION_TYPE":"U","NORAD_CAT_ID":52121,"ELEMENT_SET_NO":999,"REV_AT_EPOCH":22088,"BSTAR":-5.35713e-5,"MEAN_MOTION_DOT":-1.14e-5,"MEAN_MOTION_DDOT":0},{"OBJECT_NAME":"OBJECT D","OBJECT_ID":"2025-013D","EPOCH":"2026-03-09T22:45:56.369376","MEAN_MOTION":15.10588544,"ECCENTRICITY":0.0008827,"INCLINATION":97.6457,"RA_OF_ASC_NODE":238.3603,"ARG_OF_PERICENTER":18.3993,"MEAN_ANOMALY":341.7554,"EPHEMERIS_TYPE":0,"CLASSIFICATION_TYPE":"U","NORAD_CAT_ID":62732,"ELEMENT_SET_NO":999,"REV_AT_EPOCH":6229,"BSTAR":0.00036300228,"MEAN_MOTION_DOT":5.935e-5,"MEAN_MOTION_DDOT":0}]
